[
    {
        "Altitude(m)": 607897.6054102621,
        "Argument of Periapsis(deg)": 0.0,
        "Eccentricity": 0.0,
        "Inclination(deg)": 60.0,
        "Latitude(deg)": -14.29288250772574,
        "Longitude(deg)": 101.61875521042305,
        "Mean Anomaly(deg)": -16.363600000000037,
        "RAAN(deg)": 210.0,
        "Satellite Name": "Test1 945",
        "Satellite Number": 945,
        "Semi-Major Axis(m)": 6980739.136638005,
        "Time(s)": 0
    },
    {
        "Altitude(m)": 607750.8070131892,
        "Argument of Periapsis(deg)": 0.00010418945913296404,
        "Eccentricity": 0.0,
        "Inclination(deg)": 60.0,
        "Latitude(deg)": -13.758723903831942,
        "Longitude(deg)": 101.90582407014637,
        "Mean Anomaly(deg)": -15.743493854538185,
        "RAAN(deg)": 209.99957995086027,
        "Satellite Name": "Test1 945",
        "Satellite Number": 945,
        "Semi-Major Axis(m)": 6980739.136638005,
        "Time(s)": 10
    }
]